[{"OBJECT_NAME":"ONEWEB-0234","OBJECT_ID":"2021-045S","EPOCH":"2026-03-09T19:55:59.946816","MEAN_MOTION":13.15549876,"ECCENTRICITY":0.00022309,"INCLINATION":87.8938,"RA_OF_ASC_NODE":279.014,"ARG_OF_PERICENTER":73.1956,"MEAN_ANOMALY":286.9419,"EPHEMERIS_TYPE":0,"CLASSIFICATION_TYPE":"U","NORAD_CAT_ID":48783,"ELEMENT_SET_NO":999,"REV_AT_EPOCH":23141,"BSTAR":-0.00048579386,"MEAN_MOTION_DOT":-1.7e-6,"MEAN_MOTION_DDOT":0},{"OBJECT_NAME":"SCOUT G-1 DEB","OBJECT_ID":"1985-066K","EPOCH":"2026-02-22T20:08:41.184384","MEAN_MOTION":13.42499331,"ECCENTRICITY":0.01547318,"INCLINATION":90.1663,"RA_OF_ASC_NODE":86.9703,"ARG_OF_PERICENTER":168.0375,"MEAN_ANOMALY":192.4516,"EPHEMERIS_TYPE":0,"CLASSIFICATION_TYPE":"U","NORAD_CAT_ID":44571,"ELEMENT_SET_NO":999,"REV_AT_EPOCH":64327,"BSTAR":0.0012483825,"MEAN_MOTION_DOT":7.67e-6,"MEAN_MOTION_DDOT":0}]
